BEIDOU-2 IGSO-1 (C06)   
1 36828U 10036A   24008.88000176 -.00000055  00000+0  00000+0 0  9990
2 36828  54.2447 171.0193 0038601 191.4962 170.9155  1.00273486 49289
BEIDOU-2 G4 (C04)       
1 37210U 10057A   24008.81873775 -.00000088  00000+0  00000+0 0  9991
2 37210   1.4640  65.6977 0007409 191.7085 305.2531  1.00272469 48351
BEIDOU-2 IGSO-2 (C07)   
1 37256U 10068A   24008.29590390 -.00000179  00000+0  00000+0 0  9995
2 37256  49.1765 282.7810 0031800 215.4525 179.7649  1.00301721 47864
BEIDOU-2 IGSO-3 (C08)   
1 37384U 11013A   24007.54462556 -.00000166  00000+0  00000+0 0  9993
2 37384  61.1182  48.6762 0029443 183.5509 175.5324  1.00299510 46714
BEIDOU-2 IGSO-4 (C09)   
1 37763U 11038A   24007.33651941  .00000084  00000+0  00000+0 0  9994
2 37763  54.5526 173.6130 0116506 226.4299 280.5966  1.00292699 45709
BEIDOU-2 IGSO-5 (C10)   
1 37948U 11073A   24008.72132705 -.00000131  00000+0  00000+0 0  9998
2 37948  49.3050 282.4539 0094171 221.2764 317.7583  1.00287559 44204
BEIDOU-2 G5 (C05)       
1 38091U 12008A   24009.08503286  .00000079  00000+0  00000+0 0  9993
2 38091   2.0138  70.2213 0008870 216.1361 271.0473  1.00272510 43554
BEIDOU-2 M3 (C11)       
1 38250U 12018A   24008.38297354 -.00000071  00000+0  00000+0 0  9992
2 38250  56.4414 334.6893 0024715 265.6951  94.0177  1.86231194 79697
BEIDOU-2 M4 (C12)       
1 38251U 12018B   24007.77692302 -.00000072  00000+0  00000+0 0  9998
2 38251  56.3508 333.9932 0015726 270.2576  89.5585  1.86231951 79349
BEIDOU-2 M6 (C14)       
1 38775U 12050B   24008.56049923 -.00000030  00000+0  00000+0 0  9992
2 38775  55.7863  92.5379 0011957 328.6428  31.3121  1.86231001 76722
BEIDOU-2 G6 (C02)       
1 38953U 12059A   24009.19285464 -.00000153  00000+0  00000+0 0  9997
2 38953   2.1507  81.5052 0009430 289.7936 250.3195  1.00269027 41126
BEIDOU-3S IGSO-1S (C31) 
1 40549U 15019A   24008.79493833 -.00000179  00000+0  00000+0 0  9994
2 40549  50.8721 306.0859 0035363 195.3028 347.7769  1.00284510 32140
BEIDOU-3S M2S (C58)     
1 40748U 15037A   24007.44158537 -.00000073  00000+0  00000+0 0  9998
2 40748  55.5878 332.5263 0011924 262.4939  97.3676  1.86233115 57515
BEIDOU-3S M1S (C57)     
1 40749U 15037B   24006.10098478 -.00000076  00000+0  00000+0 0  9991
2 40749  55.5917 332.5584 0006901 319.9014  40.0467  1.86232979 57494
BEIDOU-3S IGSO-2S (C56) 
1 40938U 15053A   24008.68625854 -.00000086  00000+0  00000+0 0  9999
2 40938  50.6092 269.2809 0045734 192.5791 346.3002  1.00254506 30421
BEIDOU-2 IGSO-6 (C13)   
1 41434U 16021A   24007.06785706 -.00000137  00000+0  00000+0 0  9998
2 41434  58.9308  46.9932 0050003 224.7399 312.7488  1.00258973 28534
BEIDOU-2 G7 (C03)       
1 41586U 16037A   24008.66563012 -.00000329  00000+0  00000+0 0  9997
2 41586   1.5228  66.9799 0009991 315.6652  75.0891  1.00264076 27865
BEIDOU-3 M1 (C19)       
1 43001U 17069A   24008.86365385 -.00000028  00000+0  00000+0 0  9998
2 43001  55.9373  92.6040 0010018 289.9366  69.9827  1.86231236 42027
BEIDOU-3 M2 (C20)       
1 43002U 17069B   24007.72668736 -.00000033  00000+0  00000+0 0  9995
2 43002  55.9361  92.6773 0007206 312.3295  47.6334  1.86231039 41997
BEIDOU-3 M7 (C27)       
1 43107U 18003A   24008.55074185 -.00000073  00000+0  00000+0 0  9995
2 43107  55.0442 333.1499 0003452  45.1776 314.8461  1.86232288 40778
BEIDOU-3 M8 (C28)       
1 43108U 18003B   24006.34205909 -.00000076  00000+0  00000+0 0  9994
2 43108  55.0386 333.2121 0004683 272.1329  87.8126  1.86230876 40734
BEIDOU-3 M4 (C22)       
1 43207U 18018A   24008.39473733 -.00000031  00000+0  00000+0 0  9990
2 43207  55.8958  92.7143 0004093 338.7605  21.2478  1.86231213 40153
BEIDOU-3 M3 (C21)       
1 43208U 18018B   24008.46135327 -.00000030  00000+0  00000+0 0  9992
2 43208  55.8954  92.7165 0007447 299.2428  60.7083  1.86231355 40151
BEIDOU-3 M9 (C29)       
1 43245U 18029A   24008.14661686 -.00000073  00000+0  00000+0 0  9999
2 43245  54.9344 330.8871 0001882 296.0892  63.8875  1.86232498 39309
BEIDOU-3 M10 (C30)      
1 43246U 18029B   24008.61343165 -.00000072  00000+0  00000+0 0  9990
2 43246  54.9306 330.8989 0004726 348.4306  11.5539  1.86232651 39308
BEIDOU-2 IGSO-7 (C16)   
1 43539U 18057A   24008.88000176 -.00000050  00000+0  00000+0 0  9993
2 43539  55.1285 170.7478 0064815 228.9781 133.9428  1.00244823 20227
BEIDOU-3 M5 (C23)       
1 43581U 18062A   24007.76042347  .00000132  00000+0  00000+0 0  9998
2 43581  54.1542 212.6350 0001898 349.2769  10.7878  1.86228771 37035
BEIDOU-3 M6 (C24)       
1 43582U 18062B   24007.09005263  .00000130  00000+0  00000+0 0  9999
2 43582  54.1539 212.6475 0007294  38.1721 321.9475  1.86229789 37027
BEIDOU-3 M12 (C26)      
1 43602U 18067A   24008.09909369  .00000133  00000+0  00000+0 0  9991
2 43602  54.2430 211.2794 0008254  30.3972 329.7172  1.86231597 36523
BEIDOU-3 M11 (C25)      
1 43603U 18067B   24008.76988609  .00000131  00000+0  00000+0 0  9998
2 43603  54.2400 211.2220 0004965  27.5530 332.5389  1.86231527 36567
BEIDOU-3 M13 (C32)      
1 43622U 18072A   24008.72944305 -.00000029  00000+0  00000+0 0  9993
2 43622  55.8664  92.2385 0006794 283.4931  76.4585  1.86231085 36073
BEIDOU-3 M14 (C33)      
1 43623U 18072B   24008.59489689 -.00000030  00000+0  00000+0 0  9990
2 43623  55.8681  92.2359 0004006 305.1774  54.8119  1.86231063 36063
BEIDOU-3 M16 (C35)      
1 43647U 18078A   24007.14751011 -.00000075  00000+0  00000+0 0  9992
2 43647  54.8306 331.0332 0007658   2.4855 357.5157  1.86232224 35547
BEIDOU-3 M15 (C34)      
1 43648U 18078B   24008.88746335 -.00000072  00000+0  00000+0 0  9995
2 43648  54.8252 330.9765 0004599   3.8554 356.1433  1.86232029 35600
BEIDOU-3 G1 (C59)       
1 43683U 18085A   24008.88639153 -.00000256  00000+0  00000+0 0  9995
2 43683   1.8056 116.8165 0001361 347.8339 102.3501  1.00266418 19136
BEIDOU-3 M17 (C36)      
1 43706U 18093A   24007.42488749  .00000132  00000+0  00000+0 0  9994
2 43706  54.2369 212.5729 0006402 296.0468  63.9557  1.86228376 34911
BEIDOU-3 M18 (C37)      
1 43707U 18093B   24008.36540919  .00000132  00000+0  00000+0 0  9997
2 43707  54.2377 212.5326 0006253 336.4120  23.6279  1.86229875 34944
BEIDOU-3 IGSO-1 (C38)   
1 44204U 19023A   23359.85561811 -.00000224  00000+0  00000+0 0  9993
2 44204  57.3835  47.0551 0023834 204.1671 266.3544  1.00248909 17270
BEIDOU-2 G8 (C01)       
1 44231U 19027A   24008.81569196 -.00000224  00000+0  00000+0 0  9999
2 44231   1.5521  72.4516 0004080 176.4170 297.2038  1.00270997 17153
BEIDOU-3 IGSO-2 (C39)   
1 44337U 19035A   24008.86091289 -.00000070  00000+0  00000+0 0  9992
2 44337  55.1666 166.6763 0031228 200.1204 169.1266  1.00291000 16744
BEIDOU-3 M24 (C46)      
1 44542U 19061A   24008.97305375  .00000130  00000+0  00000+0 0  9991
2 44542  54.4643 212.7744 0008757  11.8463 348.2424  1.86231421 29213
BEIDOU-3 M23 (C45)      
1 44543U 19061B   24008.30049351  .00000132  00000+0  00000+0 0  9990
2 44543  54.4626 212.7668 0005556  11.0229 170.1871  1.86231831 29208
BEIDOU-3 IGSO-3 (C40)   
1 44709U 19073A   24008.18511398 -.00000190  00000+0  00000+0 0  9993
2 44709  56.3231 290.4287 0034892 182.7636 177.2512  1.00298683 15522
BEIDOU-3 M22 (C44)      
1 44793U 19078A   24008.28156238 -.00000073  00000+0  00000+0 0  9990
2 44793  54.6782 330.9457 0006523   7.5592 352.4464  1.86231929 28061
BEIDOU-3 M21 (C43)      
1 44794U 19078B   24008.41179622 -.00000073  00000+0  00000+0 0  9998
2 44794  54.6517 330.9207 0004662 356.3207   3.6716  1.86232463 28060
BEIDOU-3 M19 (C41)      
1 44864U 19090A   24008.75743799 -.00000029  00000+0  00000+0 0  9990
2 44864  55.8005  92.4182 0018104 273.9666 151.1814  1.86231513 27651
BEIDOU-3 M20 (C42)      
1 44865U 19090B   24008.52305769 -.00000030  00000+0  00000+0 0  9999
2 44865  55.8022  92.4591 0015609 286.3069  71.4684  1.86231494 27621
BEIDOU-3 G2 (C60)       
1 45344U 20017A   24008.91299396 -.00000118  00000+0  00000+0 0  9991
2 45344   2.1421  22.6550 0002857 251.8562 242.1456  1.00272443 14331
BEIDOU-3 G3 (C61)       
1 45807U 20040A   24008.88052389 -.00000330  00000+0  00000+0 0  9992
2 45807   0.5879  13.2753 0008954 301.0102 221.1621  1.00275233 13146
BEIDOU-3 G4             
1 56564U 23066A   24009.07410527 -.00000082  00000+0  00000+0 0  9993
2 56564   2.5249 288.3237 0003270 228.5646 138.0007  1.00271773  2489
BEIDOU-3 M25            
1 58654U 23207A   24008.96309732 -.00000030  00000+0  00000+0 0  9997
2 58654  54.9807  92.5330 0117579 178.8980 181.1538  1.82957674   260
BEIDOU-3 M26            
1 58655U 23207B   24005.84694770 -.00000037  00000+0  00000+0 0  9998
2 58655  54.6471  92.7627 0316732  68.9835  87.0455  1.85607573   193
